SHENZHOU-22             
1 66645U 25272A   26068.58759433  .00025302  00000+0  29943-3 0  9992
2 66645  41.4666 208.7841 0006982 272.7102  87.2938 15.60651211269239
SOYUZ-MS 28             
1 66664U 25275A   26068.70691881  .00007976  00000+0  15510-3 0  9994
2 66664  51.6323  72.2710 0008020 174.6781 185.4294 15.48547200556345
DUPLEX                  
1 66906U 98067XS  26068.26507085  .00032613  00000+0  46194-3 0  9993
2 66906  51.6292  71.5742 0002352 105.0459 255.0793 15.56173830 15068
ISS OBJECT XT           
1 66907U 98067XT  26068.00964866  .00187404  00000+0  15577-2 0  9999
2 66907  51.6252  69.1047 0004704  72.0674 288.0836 15.69021342 15070
ISS OBJECT XU           
1 66908U 98067XU  26068.19895314  .00161175  00000+0  13351-2 0  9996
2 66908  51.6248  68.1144 0004893  76.6698 283.4844 15.69191892 15108
SILVERSAT               
1 66909U 98067XV  26068.26463686  .00211631  00000+0  15445-2 0  9997
2 66909  51.6252  67.0520 0005527  73.9744 286.1863 15.72057374 15120
ISS OBJECT XW           
1 66910U 98067XW  26068.25909918  .00146604  00000+0  12540-2 0  9991
2 66910  51.6252  67.7624 0005143  83.0730 277.0851 15.68462358 15117
ISS OBJECT XX           
1 66911U 98067XX  26068.51628204  .00244098  00000+0  15443-2 0  9998
2 66911  51.6211  64.9631 0006920  81.6711 278.5073 15.75275776 15168
ISS OBJECT XY           
1 66912U 98067XY  26068.26206831  .00094078  00000+0  98678-3 0  9992
2 66912  51.6273  69.2991 0003192  85.1778 274.9581 15.63596680 15086
KNACKSAT-2              
1 67683U 98067XZ  26068.27683825  .00041312  00000+0  68223-3 0  9997
2 67683  51.6309  73.9008 0009391 184.4289 175.6619 15.51788436  4727
GXIBA-1                 
1 67684U 98067YA  26068.31453739  .00079693  00000+0  11905-2 0  9999
2 67684  51.6300  73.4032 0011013 174.4815 185.6299 15.54259962  4735
CORAL                   
1 67685U 98067YB  26068.40126969  .00044538  00000+0  72424-3 0  9996
2 67685  51.6314  73.2314 0011354 181.5585 178.5371 15.52162760  4743
ISS OBJECT YC           
1 67686U 98067YC  26068.26712494  .00051700  00000+0  82449-3 0  9992
2 67686  51.6312  73.8379 0007896 148.5060 211.6404 15.52676056  4728
LEOPARD                 
1 67687U 98067YD  26068.59650201  .00040393  00000+0  66276-3 0  9992
2 67687  51.6320  72.2870 0007827 153.8657 206.2729 15.51994489  4690
ISS OBJECT YE           
1 67688U 98067YE  26068.84889279  .00050937  00000+0  81797-3 0  9990
2 67688  51.6313  70.9734 0007820 150.8977 209.2450 15.52490790  4738
CREW DRAGON 12          
1 67796U 26031A   26068.70691881  .00007976  00000+0  15510-3 0  9992
2 67796  51.6323  72.2710 0008020 174.6781 185.4294 15.48547200556229
